EARTHCARE               
1 59908U 24101A   24230.35276584  .00026331  00000+0  37273-3 0  9999
2 59908  96.9854 356.6825 0002934 220.4593 139.6445 15.56473979 12496
